NORAD_CAT_ID,OBJECT_NAME,OBJECT_TYPE,EPOCH,MEAN_MOTION,ECCENTRICITY,INCLINATION,RA_OF_ASC_NODE,ARG_OF_PERICENTER,MEAN_ANOMALY,BSTAR,MEAN_MOTION_DOT,MEAN_MOTION_DDOT,TLE_LINE0,TLE_LINE1,TLE_LINE2,SEMIMAJOR_AXIS,PERIOD,APOGEE,PERIGEE,DECAYED
52993.0,STARLINK-4264,PAYLOAD,2023-09-18 18:51:23,15.08839687,0.0001533,53.2183,187.4133,85.7059,274.4108,6.578e-05,7.59e-06,0.0,0 STARLINK-4264,1 52993U 22076H   23261.78569252  .00000759  00000-0  65780-4 0  9994,2 52993  53.2183 187.4133 0001533  85.7059 274.4108 15.08839687 66536,6917.881,95.438,540.807,538.686,0.0
52993.0,STARLINK-4264,PAYLOAD,2023-09-19 02:48:19,15.0884583,0.0001609,53.2168,185.927,96.6828,263.4347,0.00014337,1.995e-05,0.0,0 STARLINK-4264,1 52993U 22076H   23262.11688665  .00001995  00000-0  14337-3 0  9996,2 52993  53.2168 185.9270 0001609  96.6828 263.4347 15.08845830 67051,6917.863,95.437,540.841,538.614,0.0
52993.0,STARLINK-4264,PAYLOAD,2023-09-19 18:42:10,15.08841606,0.0001529,53.2167,182.9541,92.5272,267.5895,0.00023943,3.525e-05,0.0,0 STARLINK-4264,1 52993U 22076H   23262.77928906  .00003525  00000-0  23943-3 0  9997,2 52993  53.2167 182.9541 0001529  92.5272 267.5895 15.08841606 67158,6917.875,95.437,540.798,538.683,0.0
52993.0,STARLINK-4264,PAYLOAD,2023-09-20 01:03:42,15.088517,0.0001457,53.2165,181.7635,92.7175,267.3984,0.00014509,2.023e-05,0.0,0 STARLINK-4264,1 52993U 22076H   23263.04424083  .00002023  00000-0  14509-3 0  9995,2 52993  53.2165 181.7635 0001457  92.7175 267.3984 15.08851700 67198,6917.845,95.437,540.718,538.702,0.0
52993.0,STARLINK-4264,PAYLOAD,2023-09-20 12:11:25,15.08836971,0.0001809,53.2173,179.6797,91.0214,269.0985,-3.5891e-05,-8.59e-06,0.0,0 STARLINK-4264,1 52993U 22076H   23263.50792988 -.00000859  00000-0 -35891-4 0  9993,2 52993  53.2173 179.6797 0001809  91.0214 269.0985 15.08836971 67260,6917.89,95.438,541.006,538.503,0.0
52993.0,STARLINK-4264,PAYLOAD,2023-09-20 21:43:44,15.08831716,0.0001748,53.216,177.8964,100.7092,259.4097,-0.00011177,-2.066e-05,0.0,0 STARLINK-4264,1 52993U 22076H   23263.90537539 -.00002066  00000-0 -11177-3 0  9998,2 52993  53.2160 177.8964 0001748 100.7092 259.4097 15.08831716 66859,6917.906,95.438,540.98,538.561,0.0
52993.0,STARLINK-4264,PAYLOAD,2023-09-21 00:54:30,15.08828221,0.0001554,53.217,177.3042,101.2111,258.9056,-0.00012014,-2.199e-05,0.0,0 STARLINK-4264,1 52993U 22076H   23264.03785796 -.00002199  00000-0 -12014-3 0  9991,2 52993  53.2170 177.3042 0001554 101.2111 258.9056 15.08828221 67346,6917.916,95.438,540.856,538.706,0.0
52993.0,STARLINK-4264,PAYLOAD,2023-09-21 18:23:45,15.08840388,0.0001479,53.2168,174.0324,101.0001,259.1158,0.00010584,1.397e-05,0.0,0 STARLINK-4264,1 52993U 22076H   23264.76649476  .00001397  00000-0  10584-3 0  9992,2 52993  53.2168 174.0324 0001479 101.0001 259.1158 15.08840388 67458,6917.879,95.438,540.767,538.721,0.0
52993.0,STARLINK-4264,PAYLOAD,2023-09-21 21:34:31,15.08846029,0.0001384,53.2166,173.4382,97.4304,262.6846,0.00020326,2.949e-05,0.0,0 STARLINK-4264,1 52993U 22076H   23264.89897249  .00002949  00000-0  20326-3 0  9998,2 52993  53.2166 173.4382 0001384  97.4304 262.6846 15.08846029 67004,6917.862,95.437,540.684,538.77,0.0
52993.0,STARLINK-4264,PAYLOAD,2023-09-22 00:45:17,15.0885111,0.0001315,53.2167,172.8441,88.4534,271.6609,0.0004455,6.811e-05,0.0,0 STARLINK-4264,1 52993U 22076H   23265.03145308  .00006811  00000-0  44550-3 0  9994,2 52993  53.2167 172.8441 0001315  88.4534 271.6609 15.08851110 67490,6917.846,95.437,540.621,538.802,0.0
52993.0,STARLINK-4264,PAYLOAD,2023-09-22 21:25:18,15.08842333,0.0001312,53.2166,168.9777,85.9889,274.1254,0.00014318,1.992e-05,0.0,0 STARLINK-4264,1 52993U 22076H   23265.89257647  .00001992  00000-0  14318-3 0  9992,2 52993  53.2166 168.9777 0001312  85.9889 274.1254 15.08842333 67153,6917.873,95.437,540.646,538.831,0.0
52993.0,STARLINK-4264,PAYLOAD,2023-09-23 00:36:04,15.08852313,0.000127,53.2166,168.3854,87.7943,272.3194,0.00040292,6.133e-05,0.0,0 STARLINK-4264,1 52993U 22076H   23266.02505403  .00006133  00000-0  40292-3 0  9996,2 52993  53.2166 168.3854 0001270  87.7943 272.3194 15.08852313 67643,6917.843,95.437,540.586,538.829,0.0
52993.0,STARLINK-4264,PAYLOAD,2023-09-23 18:05:19,15.08840687,0.0001314,53.2165,165.1129,80.2318,279.8822,1.3719e-05,-7e-07,0.0,0 STARLINK-4264,1 52993U 22076H   23266.75369498 -.00000070  00000-0  13719-4 0  9998,2 52993  53.2165 165.1129 0001314  80.2318 279.8822 15.08840687 67758,6917.878,95.438,540.652,538.834,0.0
52993.0,STARLINK-4264,PAYLOAD,2023-09-24 00:26:51,15.08846208,0.0001349,53.2171,163.9235,93.6015,266.5132,4.1154e-05,3.67e-06,0.0,0 STARLINK-4264,1 52993U 22076H   23267.01865353  .00000367  00000-0  41154-4 0  9991,2 52993  53.2171 163.9235 0001349  93.6015 266.5132 15.08846208 67324,6917.861,95.437,540.66,538.793,0.0
52993.0,STARLINK-4264,PAYLOAD,2023-09-24 21:06:53,15.08824202,0.0001485,53.2175,160.0582,101.6587,258.4572,0.00033762,5.087e-05,0.0,0 STARLINK-4264,1 52993U 22076H   23267.87978613  .00005087  00000-0  33762-3 0  9998,2 52993  53.2175 160.0582 0001485 101.6587 258.4572 15.08824202 67920,6917.929,95.439,540.821,538.766,0.0
52993.0,STARLINK-4264,PAYLOAD,2023-09-24 22:42:16,15.08838395,0.0001351,53.2173,159.7609,95.4817,264.6329,-3.0083e-05,-7.67e-06,0.0,0 STARLINK-4264,1 52993U 22076H   23267.94601942 -.00000767  00000-0 -30083-4 0  9990,2 52993  53.2173 159.7609 0001351  95.4817 264.6329 15.08838395 67467,6917.885,95.438,540.685,538.816,0.0
52993.0,STARLINK-4264,PAYLOAD,2023-09-25 01:53:02,15.0884504,0.0001208,53.2167,159.1645,88.2956,271.8175,9.5829e-05,1.238e-05,0.0,0 STARLINK-4264,1 52993U 22076H   23268.07849570  .00001238  00000-0  95829-4 0  9997,2 52993  53.2167 159.1645 0001208  88.2956 271.8175 15.08845040 67957,6917.865,95.437,540.566,538.894,0.0
52993.0,STARLINK-4264,PAYLOAD,2023-09-25 09:49:57,15.0884847,0.0001252,53.2168,157.6773,84.2178,275.8957,0.00016501,2.34e-05,0.0,0 STARLINK-4264,1 52993U 22076H   23268.40969451  .00002340  00000-0  16501-3 0  9999,2 52993  53.2168 157.6773 0001252  84.2178 275.8957 15.08848470 67530,6917.854,95.437,540.586,538.853,0.0
52993.0,STARLINK-4264,PAYLOAD,2023-09-26 01:43:48,15.08863828,0.0001211,53.2161,154.7041,93.1712,266.9419,0.00060966,9.434e-05,0.0,0 STARLINK-4264,1 52993U 22076H   23269.07208848  .00009434  00000-0  60966-3 0  9994,2 52993  53.2161 154.7041 0001211  93.1712 266.9419 15.08863828 68109,6917.808,95.436,540.51,538.835,0.0
52993.0,STARLINK-4264,PAYLOAD,2023-09-26 20:48:27,15.088344,0.0001441,53.2165,151.1334,94.8787,265.2369,-4.4643e-05,-9.98e-06,0.0,0 STARLINK-4264,1 52993U 22076H   23269.86697941 -.00000998  00000-0 -44643-4 0  9990,2 52993  53.2165 151.1334 0001441  94.8787 265.2369 15.08834400 68227,6917.898,95.438,540.759,538.766,0.0
52993.0,STARLINK-4264,PAYLOAD,2023-09-27 09:31:32,15.0882528,0.000188,53.2159,148.7548,94.9543,265.1664,0.00028053,4.178e-05,0.0,0 STARLINK-4264,1 52993U 22076H   23270.39690730  .00004178  00000-0  28053-3 0  9997,2 52993  53.2159 148.7548 0001880  94.9543 265.1664 15.08825280 68309,6917.925,95.438,541.091,538.49,0.0
52993.0,STARLINK-4264,PAYLOAD,2023-09-27 22:14:37,15.08827796,0.0001388,53.2159,146.378,94.3799,265.7352,0.000511,7.851e-05,0.0,0 STARLINK-4264,1 52993U 22076H   23270.92682778  .00007851  00000-0  51100-3 0  9999,2 52993  53.2159 146.3780 0001388  94.3799 265.7352 15.08827796 67911,6917.918,95.438,540.743,538.822,0.0
52993.0,STARLINK-4264,PAYLOAD,2023-09-28 22:05:25,15.08845349,0.0001496,53.2162,141.9185,77.8731,282.2429,0.00038186,5.795e-05,0.0,0 STARLINK-4264,1 52993U 22076H   23271.92042951  .00005795  00000-0  38186-3 0  9997,2 52993  53.2162 141.9185 0001496  77.8731 282.2429 15.08845349 68067,6917.864,95.437,540.764,538.694,0.0
52993.0,STARLINK-4264,PAYLOAD,2023-09-29 21:56:11,15.08851677,0.0001535,53.216,137.4572,79.9441,280.1724,0.00022917,3.362e-05,0.0,0 STARLINK-4264,1 52993U 22076H   23272.91402360  .00003362  00000-0  22917-3 0  9994,2 52993  53.2160 137.4572 0001535  79.9441 280.1724 15.08851677 68213,6917.845,95.437,540.772,538.648,0.0
52993.0,STARLINK-4264,PAYLOAD,2023-09-30 07:28:30,15.08849088,0.0001572,53.2162,135.6709,85.0949,275.0223,0.00012505,1.703e-05,0.0,0 STARLINK-4264,1 52993U 22076H   23273.31146183  .00001703  00000-0  12505-3 0  9996,2 52993  53.2162 135.6709 0001572  85.0949 275.0223 15.08849088 68747,6917.853,95.437,540.805,538.63,0.0
52993.0,STARLINK-4264,PAYLOAD,2023-10-01 13:40:49,15.0884539,0.0001612,53.2167,130.0267,104.2336,255.8835,3.3805e-05,2.5e-06,0.0,0 STARLINK-4264,1 52993U 22076H   23274.57001833  .00000250  00000-0  33805-4 0  9990,2 52993  53.2167 130.0267 0001612 104.2336 255.8835 15.08845390 68465,6917.864,95.437,540.844,538.614,0.0
52993.0,STARLINK-4264,PAYLOAD,2023-10-01 18:26:59,15.08839097,0.000161,53.2172,129.1328,103.0503,257.0669,-0.00012894,-2.339e-05,0.0,0 STARLINK-4264,1 52993U 22076H   23274.76874102 -.00002339  00000-0 -12894-3 0  9994,2 52993  53.2172 129.1328 0001610 103.0503 257.0669 15.08839097 68960,6917.883,95.438,540.862,538.634,0.0
52993.0,STARLINK-4264,PAYLOAD,2023-10-01 21:37:45,15.08841401,0.0001551,53.2182,128.5387,102.0583,258.0583,-4.3669e-05,-9.83e-06,0.0,0 STARLINK-4264,1 52993U 22076H   23274.90122503 -.00000983  00000-0 -43669-4 0  9999,2 52993  53.2182 128.5387 0001551 102.0583 258.0583 15.08841401 68519,6917.876,95.437,540.814,538.668,0.0
52993.0,STARLINK-4264,PAYLOAD,2023-10-02 19:53:10,15.08834738,0.0001465,53.217,124.3748,104.8415,255.274,-3.4089e-05,-8.3e-06,0.0,0 STARLINK-4264,1 52993U 22076H   23275.82859180 -.00000830  00000-0 -34089-4 0  9996,2 52993  53.2170 124.3748 0001465 104.8415 255.2740 15.08834738 69126,6917.896,95.438,540.775,538.748,0.0
52993.0,STARLINK-4264,PAYLOAD,2023-10-03 07:00:51,15.08842314,0.0001456,53.2171,122.2923,100.8084,259.3072,9.0686e-06,-1.44e-06,0.0,0 STARLINK-4264,1 52993U 22076H   23276.29226692 -.00000144  00000-0  90686-5 0  9997,2 52993  53.2171 122.2923 0001456 100.8084 259.3072 15.08842314 69196,6917.873,95.437,540.746,538.731,0.0
